{
"type": "FeatureCollection",
"name": "qc",
"crs": { "type": "name", "properties": { "name": "urn:ogc:def:crs:OGC:1.3:CRS84" } },
"features": [
{ "type": "Feature", "properties": { }, "geometry": { "type": "MultiPolygon", "coordinates": [ [ [ [ -79.7628726, 54.6231623 ], [ -79.5352401, 54.61853 ], [ -79.47918, 54.2927599 ], [ -79.2812001, 54.23578 ], [ -79.3924099, 54.1763599 ], [ -79.0577353, 54.1628101 ], [ -79.1763899, 54.0836101 ], [ -78.96543, 54.00465 ], [ -79.15474, 53.9480099 ], [ -78.9501135, 53.8988157 ], [ -78.9789964, 53.8870411 ], [ -79.0333479, 53.9047181 ], [ -79.1150477, 53.8919921 ], [ -78.9265603, 53.8291882 ], [ -79.0817856, 53.7940076 ], [ -79.0726534, 53.5874527 ], [ -78.88594, 53.5554101 ], [ -79.1365171, 53.5006703 ], [ -78.8957616, 53.4023519 ], [ -78.9945737, 53.0134392 ], [ -78.7940806, 53.0040427 ], [ -78.7834208, 52.9551277 ], [ -78.83322, 52.9597301 ], [ -78.8716499, 52.9290401 ], [ -78.8807737, 52.9292923 ], [ -78.8937217, 52.9206085 ], [ -78.9161673, 52.9151285 ], [ -78.9195565, 52.9135688 ], [ -78.9201816, 52.9115214 ], [ -78.7024784, 52.8773938 ], [ -78.7610054, 52.8251666 ], [ -78.8089327, 52.8091253 ], [ -78.7336703, 52.8131915 ], [ -78.715405, 52.7755943 ], [ -78.8320601, 52.7791801 ], [ -78.83967, 52.76202 ], [ -78.87327, 52.7400799 ], [ -78.77277, 52.7318301 ], [ -78.7771279, 52.7001697 ], [ -78.82578, 52.70155 ], [ -78.80989, 52.6820399 ], [ -78.7288801, 52.6910201 ], [ -78.7376899, 52.65941 ], [ -78.81588, 52.63807 ], [ -78.7218999, 52.63886 ], [ -78.70305, 52.6046699 ], [ -78.7677348, 52.5419894 ], [ -78.7302482, 52.5608949 ], [ -78.5684896, 52.5136354 ], [ -78.5123299, 52.46037 ], [ -78.5022709, 52.3472719 ], [ -78.5780185, 52.103275 ], [ -78.6498785, 52.0531766 ], [ -78.71263, 52.0471901 ], [ -78.6268022, 51.983599 ], [ -79.0438, 51.76356 ], [ -78.8048887, 51.6023726 ], [ -78.7648226, 51.4844949 ], [ -78.9151104, 51.2666759 ], [ -78.9263483, 51.2702218 ], [ -78.9502301, 51.2975499 ], [ -78.9876788, 51.4686097 ], [ -79.2474793, 51.5431881 ], [ -79.22727, 51.64525 ], [ -79.5415529, 51.5495052 ], [ -79.5870363, 47.4365578 ], [ -79.4362264, 47.086834 ], [ -78.7105866, 46.3247604 ], [ -77.6654276, 46.1949386 ], [ -76.9878691, 45.7870521 ], [ -76.7826084, 45.873993 ], [ -76.6592411, 45.5596048 ], [ -76.3725822, 45.4601289 ], [ -76.0915839, 45.5167467 ], [ -75.8172909, 45.3724669 ], [ -74.9356682, 45.6454052 ], [ -74.3830661, 45.5666025 ], [ -74.4720083, 45.3027727 ], [ -74.3201062, 45.1881599 ], [ -74.663059, 44.998923 ], [ -71.5010194, 45.0134458 ], [ -71.4428239, 45.2382931 ], [ -71.2962422, 45.2991442 ], [ -71.1475683, 45.2394375 ], [ -71.0103778, 45.3476667 ], [ -70.8380717, 45.23462 ], [ -70.7981056, 45.4265078 ], [ -70.6212694, 45.4027358 ], [ -70.6876922, 45.5694256 ], [ -70.2588044, 45.8911686 ], [ -70.2926928, 46.1914742 ], [ -70.0565033, 46.4155811 ], [ -69.9971231, 46.6955228 ], [ -69.22447, 47.4598397 ], [ -69.0432161, 47.4267836 ], [ -69.0509608, 47.3000884 ], [ -68.3834933, 47.5531985 ], [ -68.3823342, 47.9161169 ], [ -68.1226045, 47.999843 ], [ -67.5977438, 47.9999447 ], [ -67.3741962, 47.8439573 ], [ -66.3920415, 48.0892456 ], [ -65.8581465, 48.0222337 ], [ -65.5361394, 47.8286068 ], [ -64.2737962, 48.2206848 ], [ -63.625121, 48.0000632 ], [ -62.98636, 47.1397285 ], [ -62.2999563, 46.839999 ], [ -61.3993669, 46.8399985 ], [ -61.3504814, 47.0097234 ], [ -60.4037537, 47.7610742 ], [ -60.4768198, 48.7813802 ], [ -58.5015291, 50.2709191 ], [ -57.7361373, 50.9986069 ], [ -57.3040495, 51.138839 ], [ -57.1074889, 51.3771358 ], [ -57.1074889, 52.0000758 ], [ -63.8056199, 52.0000707 ], [ -63.8270812, 52.0855429 ], [ -63.6423254, 52.0407904 ], [ -63.8359375, 52.3137786 ], [ -63.7442058, 52.315588 ], [ -64.0963558, 52.4734166 ], [ -63.9492722, 52.6062169 ], [ -63.3781099, 52.6605524 ], [ -63.6173464, 52.7713459 ], [ -63.5789072, 52.7948275 ], [ -63.610003, 52.8856153 ], [ -64.1482982, 52.7292601 ], [ -64.2209731, 52.5795374 ], [ -64.1076653, 52.3924391 ], [ -64.2541916, 52.2760337 ], [ -64.1656052, 52.1216481 ], [ -64.2938226, 52.0801462 ], [ -64.2355057, 51.9752353 ], [ -64.3690545, 51.9832748 ], [ -64.2786427, 51.7385697 ], [ -64.5499147, 51.5766318 ], [ -64.7017589, 51.7566272 ], [ -65.3497278, 51.8223074 ], [ -65.4864828, 52.1099812 ], [ -65.6444211, 51.9919303 ], [ -65.6649701, 52.1207998 ], [ -65.9882178, 52.0564754 ], [ -66.2620853, 52.3104615 ], [ -66.2701286, 52.1481627 ], [ -66.3694719, 52.1451123 ], [ -66.4928729, 52.3402404 ], [ -66.3428875, 52.3660131 ], [ -66.4404108, 52.6349956 ], [ -66.3855108, 52.6822553 ], [ -66.303287, 52.601625 ], [ -66.2727165, 52.6347587 ], [ -66.4171246, 52.8513476 ], [ -66.2575248, 52.8674719 ], [ -66.350013, 53.0082681 ], [ -66.6320944, 52.9544128 ], [ -66.7622622, 52.6671212 ], [ -67.034662, 52.7519295 ], [ -67.0631508, 52.8754568 ], [ -67.3231888, 52.8761689 ], [ -67.2335062, 52.9828997 ], [ -67.3838223, 53.0881706 ], [ -67.2629683, 53.1812906 ], [ -66.9895314, 53.0843568 ], [ -67.0270506, 53.3346461 ], [ -66.8900909, 53.4130615 ], [ -67.3186608, 53.5529653 ], [ -67.6033062, 53.7626986 ], [ -67.49779, 53.8366907 ], [ -67.8206285, 54.0200088 ], [ -67.6156181, 54.1957555 ], [ -67.7669648, 54.4368141 ], [ -67.5004055, 54.4815066 ], [ -67.4917488, 54.5849095 ], [ -67.2725744, 54.4866292 ], [ -67.280327, 54.5917923 ], [ -67.0629008, 54.6929331 ], [ -67.4637039, 55.0628569 ], [ -67.2728118, 55.0764273 ], [ -66.669113, 54.7096727 ], [ -66.7521634, 54.8137414 ], [ -66.5900614, 54.815727 ], [ -66.7659904, 55.0000169 ], [ -66.6256122, 54.9838727 ], [ -66.8078429, 55.356744 ], [ -66.246416, 54.975469 ], [ -65.8498454, 54.9272109 ], [ -65.6931728, 54.708164 ], [ -65.0858147, 54.9695628 ], [ -64.7611143, 54.8295281 ], [ -64.7696721, 54.7300956 ], [ -64.3974746, 54.790493 ], [ -63.8978634, 54.6007038 ], [ -63.7126254, 54.6249508 ], [ -63.9240093, 54.7784074 ], [ -63.8298169, 54.9420523 ], [ -63.5914437, 54.8965921 ], [ -63.6022965, 55.1287333 ], [ -63.4028344, 55.2490065 ], [ -63.6794751, 55.2668869 ], [ -63.3248487, 55.3660469 ], [ -63.7926828, 55.4672386 ], [ -63.6436901, 55.6415794 ], [ -63.7646158, 55.6515879 ], [ -63.6665305, 55.7877898 ], [ -63.8544417, 55.9100124 ], [ -63.4435451, 56.0295164 ], [ -64.0346669, 56.0701446 ], [ -63.8629333, 56.2125891 ], [ -64.0873772, 56.2568893 ], [ -64.1779849, 56.4252436 ], [ -63.8742302, 56.4419604 ], [ -64.1453144, 56.6997548 ], [ -63.8591562, 56.86874 ], [ -63.8900834, 57.0860831 ], [ -63.7371374, 57.2215956 ], [ -63.8833735, 57.277621 ], [ -63.7013012, 57.3683336 ], [ -63.7719159, 57.5924498 ], [ -63.6229662, 57.6419692 ], [ -63.5967704, 57.7412477 ], [ -63.692612, 57.6526969 ], [ -64.0720013, 57.7700203 ], [ -64.2185076, 58.0369833 ], [ -64.4353949, 58.0983753 ], [ -64.1585071, 58.3710338 ], [ -63.8078501, 58.4897461 ], [ -64.1049435, 58.56323 ], [ -64.0472222, 58.7026285 ], [ -63.4675041, 58.7620471 ], [ -63.7099968, 58.8870532 ], [ -64.1377929, 58.7461669 ], [ -64.2876126, 58.8967531 ], [ -64.8891115, 58.9383822 ], [ -64.7792388, 59.0749574 ], [ -64.2617912, 59.0129566 ], [ -64.4980488, 59.106416 ], [ -64.5435363, 59.3104351 ], [ -64.3240693, 59.5127741 ], [ -64.6798349, 59.4469051 ], [ -64.9394392, 59.567046 ], [ -64.7494319, 59.7172394 ], [ -64.8252245, 59.825608 ], [ -64.6267982, 59.9302946 ], [ -64.9236433, 60.0614651 ], [ -64.5937159, 60.1170313 ], [ -64.8622585, 60.2584685 ], [ -64.5174759, 60.3043982 ], [ -64.8582303, 60.370971 ], [ -65.5592203, 59.7359253 ], [ -65.4380594, 59.5711158 ], [ -65.8494469, 59.28 ], [ -65.9904194, 58.9164144 ], [ -66.4452377, 58.8481497 ], [ -66.6725058, 58.5000689 ], [ -67.6299343, 58.2651185 ], [ -67.7177087, 58.4696731 ], [ -67.9119856, 58.3880439 ], [ -68.0, 58.587462 ], [ -68.2761485, 58.6034841 ], [ -68.3389055, 58.8161173 ], [ -69.1698604, 58.9269495 ], [ -69.1549802, 59.1476244 ], [ -69.4712155, 59.1523372 ], [ -69.2059646, 59.2542191 ], [ -69.6017927, 59.3484694 ], [ -69.6769027, 59.5152976 ], [ -69.5006498, 59.6229389 ], [ -69.6132993, 59.7041029 ], [ -69.4899778, 59.8691976 ], [ -69.618854, 59.907406 ], [ -69.5468963, 60.1982689 ], [ -69.7500007, 60.303639 ], [ -69.6680992, 60.3579892 ], [ -69.8038577, 60.5249211 ], [ -69.6269465, 60.5840001 ], [ -69.6962296, 60.6905781 ], [ -69.3634109, 60.8075943 ], [ -69.4947199, 61.0646282 ], [ -69.9011457, 60.80019 ], [ -70.1439933, 60.8814062 ], [ -70.1300487, 61.0907926 ], [ -70.4170289, 61.0066363 ], [ -70.7615084, 61.0832657 ], [ -70.7227362, 60.9996532 ], [ -70.9894614, 61.1281619 ], [ -71.4346716, 61.1189549 ], [ -71.4384209, 61.2241595 ], [ -71.4871379, 61.1679775 ], [ -71.5790845, 61.1636631 ], [ -71.7991971, 61.2797129 ], [ -71.6410017, 61.3264018 ], [ -71.8219276, 61.3443928 ], [ -71.9164556, 61.3936491 ], [ -71.5688757, 61.4037681 ], [ -71.867637, 61.4235857 ], [ -71.7076978, 61.4696935 ], [ -71.8367332, 61.5395827 ], [ -71.5508683, 61.6173399 ], [ -71.9396587, 61.7074615 ], [ -71.9644628, 61.5947266 ], [ -72.2689232, 61.5556014 ], [ -71.980542, 61.678458 ], [ -72.2663553, 61.7852123 ], [ -72.1100154, 61.7950464 ], [ -72.2097487, 61.8747075 ], [ -72.5665124, 61.9508069 ], [ -72.5934679, 61.7842974 ], [ -72.6463576, 61.884898 ], [ -72.7977217, 61.8235606 ], [ -72.581932, 61.9714134 ], [ -72.6118901, 62.111108 ], [ -72.9469804, 62.1179333 ], [ -73.6718131, 62.4802205 ], [ -74.7481996, 62.2092049 ], [ -74.5, 62.098761 ], [ -74.5283883, 62.0952679 ], [ -75.3420028, 62.3169129 ], [ -75.8524216, 62.1578939 ], [ -75.5612507, 62.271908 ], [ -77.4243573, 62.5808081 ], [ -78.089891, 62.3625588 ], [ -78.1941274, 62.2559697 ], [ -78.1241801, 62.29571 ], [ -78.1555581, 62.0139672 ], [ -78.004539, 61.705865 ], [ -77.7848913, 61.689082 ], [ -77.7281202, 61.5929152 ], [ -77.5883161, 61.6082643 ], [ -77.655061, 61.5718037 ], [ -77.5067138, 61.5521011 ], [ -77.5148157, 61.5443915 ], [ -77.4837292, 61.5351782 ], [ -77.483111, 61.5319721 ], [ -77.468984, 61.5276537 ], [ -77.4643928, 61.5232765 ], [ -77.7106047, 61.5440263 ], [ -77.5517296, 61.4811181 ], [ -77.7201368, 61.4669159 ], [ -77.6453384, 61.3848708 ], [ -77.8127137, 61.4631266 ], [ -77.7088964, 61.1760581 ], [ -78.2268673, 60.7840229 ], [ -77.5109441, 60.8425582 ], [ -77.8367084, 60.6365298 ], [ -77.6757651, 60.5421631 ], [ -77.5153325, 60.5615408 ], [ -77.4134095, 60.5404766 ], [ -77.3770235, 60.5212647 ], [ -77.5808904, 60.5394916 ], [ -77.7756178, 60.3855571 ], [ -77.4632141, 60.2001987 ], [ -77.6363755, 60.0574967 ], [ -77.1903409, 60.0461764 ], [ -77.4616496, 59.9174845 ], [ -77.2885238, 59.7912646 ], [ -77.6247422, 59.6512948 ], [ -77.6272239, 59.6781905 ], [ -77.6918739, 59.6677799 ], [ -77.7268286, 59.7074821 ], [ -77.8096, 59.7072277 ], [ -77.7107733, 59.5436489 ], [ -77.9519537, 59.4050526 ], [ -77.9286312, 59.3851319 ], [ -77.9115971, 59.4108223 ], [ -77.7202792, 59.4182972 ], [ -77.6411064, 59.3703856 ], [ -78.1287575, 59.2143561 ], [ -78.1890589, 59.1369123 ], [ -78.0799627, 59.0862098 ], [ -78.2467157, 59.1060608 ], [ -78.2880914, 58.9324174 ], [ -78.5761231, 58.9196338 ], [ -78.3513482, 58.68553 ], [ -78.5575279, 58.7931278 ], [ -78.4859741, 58.6571151 ], [ -78.496145, 58.6478946 ], [ -78.5765576, 58.6774452 ], [ -78.5979402, 58.6754931 ], [ -77.9780565, 58.3440195 ], [ -77.4815527, 58.2782473 ], [ -77.5274648, 58.1607242 ], [ -77.1490958, 58.0099678 ], [ -76.8332749, 57.6656614 ], [ -76.5499781, 57.0959017 ], [ -76.5272072, 56.3795132 ], [ -76.6907132, 56.0480429 ], [ -77.1975532, 55.6676585 ], [ -77.1152886, 55.6673066 ], [ -77.7939655, 55.2616202 ], [ -79.7628726, 54.6231623 ] ] ], [ [ [ -79.0413545, 51.7252034 ], [ -79.0405498, 51.7207372 ], [ -79.0388547, 51.724047 ], [ -79.0413545, 51.7252034 ] ] ], [ [ [ -79.0144141, 51.7035715 ], [ -79.0143447, 51.7018947 ], [ -79.0132462, 51.703464 ], [ -79.0144141, 51.7035715 ] ] ], [ [ [ -79.0133272, 51.7075125 ], [ -79.0125294, 51.7046535 ], [ -79.0115581, 51.7068604 ], [ -79.0133272, 51.7075125 ] ] ], [ [ [ -79.004635, 51.7159185 ], [ -79.0061721, 51.7132056 ], [ -79.0032946, 51.714933 ], [ -79.004635, 51.7159185 ] ] ], [ [ [ -78.9936257, 51.7018537 ], [ -78.994001, 51.6945981 ], [ -78.9860121, 51.7002919 ], [ -78.9936257, 51.7018537 ] ] ], [ [ [ -78.9352656, 51.3179266 ], [ -78.9406729, 51.288386 ], [ -78.9347077, 51.2850042 ], [ -78.9352656, 51.3179266 ] ] ], [ [ [ -78.9245797, 51.2994962 ], [ -78.9271975, 51.2865878 ], [ -78.922391, 51.2852189 ], [ -78.9245797, 51.2994962 ] ] ], [ [ [ -78.906169, 51.3320864 ], [ -78.8918782, 51.314842 ], [ -78.883381, 51.3349555 ], [ -78.906169, 51.3320864 ] ] ], [ [ [ -78.8913257, 51.9473521 ], [ -78.8916905, 51.9462874 ], [ -78.8911219, 51.9472595 ], [ -78.8913257, 51.9473521 ] ] ], [ [ [ -78.8892229, 51.9481721 ], [ -78.8898237, 51.9473256 ], [ -78.8884182, 51.9483573 ], [ -78.8892229, 51.9481721 ] ] ], [ [ [ -78.8856824, 51.9496203 ], [ -78.8857551, 51.9488955 ], [ -78.884352, 51.9482977 ], [ -78.8856824, 51.9496203 ] ] ], [ [ [ -78.87048, 51.9530201 ], [ -78.88706, 51.93563 ], [ -78.8615, 51.94132 ], [ -78.87048, 51.9530201 ] ] ], [ [ [ -78.88402, 51.95634 ], [ -78.8792099, 51.95266 ], [ -78.87946, 51.9562601 ], [ -78.88402, 51.95634 ] ] ], [ [ [ -78.8786301, 51.92984 ], [ -78.87958, 51.92742 ], [ -78.8769349, 51.9293868 ], [ -78.8786301, 51.92984 ] ] ], [ [ [ -78.8774399, 52.7670601 ], [ -78.87003, 52.7545001 ], [ -78.84657, 52.76779 ], [ -78.8774399, 52.7670601 ] ] ], [ [ [ -78.8751748, 52.8212486 ], [ -78.8798983, 52.8179594 ], [ -78.8726544, 52.8193726 ], [ -78.8751748, 52.8212486 ] ] ], [ [ [ -78.8746599, 52.77214 ], [ -78.87305, 52.77044 ], [ -78.87168, 52.7726 ], [ -78.8746599, 52.77214 ] ] ], [ [ [ -78.8694814, 52.8171536 ], [ -78.8705675, 52.8150402 ], [ -78.8698885, 52.815576 ], [ -78.8694814, 52.8171536 ] ] ], [ [ [ -78.8718899, 52.85486 ], [ -78.871491, 52.8545194 ], [ -78.8710379, 52.8548549 ], [ -78.8718899, 52.85486 ] ] ], [ [ [ -78.8695999, 52.738059 ], [ -78.8693639, 52.7367079 ], [ -78.8687846, 52.7369028 ], [ -78.8695999, 52.738059 ] ] ], [ [ [ -78.8610701, 52.7563901 ], [ -78.8650999, 52.75159 ], [ -78.8560701, 52.75489 ], [ -78.8610701, 52.7563901 ] ] ], [ [ [ -78.857176, 52.7298735 ], [ -78.8638708, 52.7271576 ], [ -78.8556095, 52.7290028 ], [ -78.857176, 52.7298735 ] ] ], [ [ [ -78.8641976, 52.8528709 ], [ -78.8649, 52.85063 ], [ -78.8632835, 52.8508296 ], [ -78.8641976, 52.8528709 ] ] ], [ [ [ -78.8633306, 52.8225721 ], [ -78.859976, 52.8204346 ], [ -78.8594894, 52.8215122 ], [ -78.8633306, 52.8225721 ] ] ], [ [ [ -78.8638359, 52.8566628 ], [ -78.863636, 52.8559662 ], [ -78.8633401, 52.8563665 ], [ -78.8638359, 52.8566628 ] ] ], [ [ [ -78.8639315, 52.8578678 ], [ -78.8629206, 52.8572556 ], [ -78.8628341, 52.8563653 ], [ -78.8611426, 52.8567934 ], [ -78.8639315, 52.8578678 ] ] ], [ [ [ -78.8616, 52.7799701 ], [ -78.8607401, 52.7759899 ], [ -78.8595, 52.77981 ], [ -78.8616, 52.7799701 ] ] ], [ [ [ -78.8550701, 51.9456901 ], [ -78.8598, 51.94232 ], [ -78.8534199, 51.94553 ], [ -78.8550701, 51.9456901 ] ] ], [ [ [ -78.8597938, 52.7269757 ], [ -78.8589569, 52.7246755 ], [ -78.8569399, 52.7262739 ], [ -78.8597938, 52.7269757 ] ] ], [ [ [ -78.8537699, 52.7330699 ], [ -78.8544495, 52.73052 ], [ -78.8508501, 52.73223 ], [ -78.8537699, 52.7330699 ] ] ], [ [ [ -78.84647, 51.9694999 ], [ -78.8564101, 51.96109 ], [ -78.8462869, 51.9649752 ], [ -78.84647, 51.9694999 ] ] ], [ [ [ -78.854433, 52.7272251 ], [ -78.8525444, 52.724772 ], [ -78.8465822, 52.726849 ], [ -78.854433, 52.7272251 ] ] ], [ [ [ -78.8504101, 52.7755399 ], [ -78.8449699, 52.7744199 ], [ -78.84445, 52.77646 ], [ -78.8504101, 52.7755399 ] ] ], [ [ [ -78.8542363, 52.7289509 ], [ -78.8535282, 52.72873 ], [ -78.8535282, 52.7289639 ], [ -78.8542363, 52.7289509 ] ] ], [ [ [ -78.8376475, 52.8222856 ], [ -78.8461392, 52.8108589 ], [ -78.8160412, 52.8183396 ], [ -78.8376475, 52.8222856 ] ] ], [ [ [ -78.8421233, 52.8561739 ], [ -78.8435429, 52.8473937 ], [ -78.8390152, 52.8496712 ], [ -78.8421233, 52.8561739 ] ] ], [ [ [ -78.8435549, 52.806428 ], [ -78.8435361, 52.8049737 ], [ -78.8410132, 52.8064815 ], [ -78.8430434, 52.8060282 ], [ -78.8435549, 52.806428 ] ] ], [ [ [ -78.8420556, 52.8068345 ], [ -78.8419682, 52.8064484 ], [ -78.8413697, 52.8071852 ], [ -78.8420556, 52.8068345 ] ] ], [ [ [ -78.8390429, 52.715789 ], [ -78.8398985, 52.71449 ], [ -78.8388865, 52.7152299 ], [ -78.8390429, 52.715789 ] ] ], [ [ [ -78.8367811, 52.7202444 ], [ -78.8377673, 52.7185247 ], [ -78.83532, 52.71898 ], [ -78.8367811, 52.7202444 ] ] ], [ [ [ -78.8317358, 51.598105 ], [ -78.8253416, 51.5898901 ], [ -78.815662, 51.5959601 ], [ -78.8317358, 51.598105 ] ] ], [ [ [ -78.825237, 52.6751174 ], [ -78.8236299, 52.6728099 ], [ -78.8190699, 52.67554 ], [ -78.825237, 52.6751174 ] ] ], [ [ [ -78.825402, 52.7248339 ], [ -78.8248958, 52.7242685 ], [ -78.8245815, 52.7255323 ], [ -78.825402, 52.7248339 ] ] ], [ [ [ -78.8156299, 52.64293 ], [ -78.81831, 52.6399099 ], [ -78.8144099, 52.6421399 ], [ -78.8156299, 52.64293 ] ] ], [ [ [ -78.8084829, 52.7244305 ], [ -78.8070135, 52.7232142 ], [ -78.8055768, 52.7256566 ], [ -78.8084829, 52.7244305 ] ] ], [ [ [ -78.8039604, 52.7278912 ], [ -78.8048421, 52.7262795 ], [ -78.8021972, 52.7285042 ], [ -78.8039604, 52.7278912 ] ] ], [ [ [ -78.8036261, 52.8530508 ], [ -78.8009733, 52.8512467 ], [ -78.8005246, 52.8529784 ], [ -78.8036261, 52.8530508 ] ] ], [ [ [ -78.7981517, 52.8487583 ], [ -78.7921475, 52.8466804 ], [ -78.7862766, 52.8511602 ], [ -78.7981517, 52.8487583 ] ] ], [ [ [ -78.7980039, 52.6603217 ], [ -78.7981926, 52.6573209 ], [ -78.7965663, 52.6608322 ], [ -78.7980039, 52.6603217 ] ] ], [ [ [ -78.7973443, 52.8227337 ], [ -78.7988049, 52.8203687 ], [ -78.7953703, 52.8215201 ], [ -78.7973443, 52.8227337 ] ] ], [ [ [ -78.7964665, 52.72975 ], [ -78.7951441, 52.7285339 ], [ -78.7950624, 52.729928 ], [ -78.7964665, 52.72975 ] ] ], [ [ [ -78.78875, 52.63307 ], [ -78.787, 52.6259999 ], [ -78.7799299, 52.6284301 ], [ -78.78875, 52.63307 ] ] ], [ [ [ -78.7942699, 52.6571399 ], [ -78.7909499, 52.65619 ], [ -78.78918, 52.65782 ], [ -78.7942699, 52.6571399 ] ] ], [ [ [ -78.7921176, 52.7113099 ], [ -78.7916586, 52.709553 ], [ -78.7883812, 52.7112814 ], [ -78.7921176, 52.7113099 ] ] ], [ [ [ -78.7927789, 52.8206389 ], [ -78.7919402, 52.820564 ], [ -78.7925029, 52.8210037 ], [ -78.7927789, 52.8206389 ] ] ], [ [ [ -78.7914828, 52.8193647 ], [ -78.7894379, 52.8188673 ], [ -78.7890069, 52.819853 ], [ -78.7914828, 52.8193647 ] ] ], [ [ [ -78.7915901, 52.78548 ], [ -78.7901307, 52.7859172 ], [ -78.7897289, 52.7868166 ], [ -78.7915901, 52.78548 ] ] ], [ [ [ -78.7874701, 52.6583 ], [ -78.7841401, 52.6574699 ], [ -78.78412, 52.65797 ], [ -78.7874701, 52.6583 ] ] ], [ [ [ -78.7844556, 52.8500005 ], [ -78.7824325, 52.8461011 ], [ -78.7817816, 52.8471111 ], [ -78.7844556, 52.8500005 ] ] ], [ [ [ -78.78596, 52.65494 ], [ -78.7829, 52.65283 ], [ -78.7829499, 52.65616 ], [ -78.78596, 52.65494 ] ] ], [ [ [ -78.7766801, 52.6716801 ], [ -78.7844999, 52.6673401 ], [ -78.76697, 52.6720101 ], [ -78.7766801, 52.6716801 ] ] ], [ [ [ -78.7769319, 52.7856033 ], [ -78.7768118, 52.7836045 ], [ -78.7752296, 52.7854659 ], [ -78.7769319, 52.7856033 ] ] ], [ [ [ -78.78463, 52.83097 ], [ -78.78345, 52.82915 ], [ -78.78208, 52.83117 ], [ -78.78463, 52.83097 ] ] ], [ [ [ -78.7801301, 52.71198 ], [ -78.7798313, 52.7101184 ], [ -78.7787953, 52.7126623 ], [ -78.7801301, 52.71198 ] ] ], [ [ [ -78.7761916, 52.5987491 ], [ -78.7745895, 52.5965084 ], [ -78.772424, 52.599935 ], [ -78.7761916, 52.5987491 ] ] ], [ [ [ -78.7755999, 52.83362 ], [ -78.7714999, 52.8312299 ], [ -78.76622, 52.8352299 ], [ -78.7755999, 52.83362 ] ] ], [ [ [ -78.767527, 52.5828168 ], [ -78.7721459, 52.5739501 ], [ -78.745169, 52.5846935 ], [ -78.767527, 52.5828168 ] ] ], [ [ [ -78.77031, 52.58981 ], [ -78.77131, 52.5866201 ], [ -78.7690499, 52.58979 ], [ -78.77031, 52.58981 ] ] ], [ [ [ -78.7718805, 52.601437 ], [ -78.7709926, 52.6006163 ], [ -78.7705431, 52.6016526 ], [ -78.7718805, 52.601437 ] ] ], [ [ [ -78.7713306, 52.5987004 ], [ -78.77119, 52.59725 ], [ -78.7694755, 52.5990419 ], [ -78.7713306, 52.5987004 ] ] ], [ [ [ -78.7696999, 52.61004 ], [ -78.76865, 52.60592 ], [ -78.7634701, 52.60839 ], [ -78.7696999, 52.61004 ] ] ], [ [ [ -78.7630638, 52.6013821 ], [ -78.7601517, 52.5986379 ], [ -78.7588348, 52.6009365 ], [ -78.7630638, 52.6013821 ] ] ], [ [ [ -78.768882, 52.5938355 ], [ -78.7658071, 52.5900788 ], [ -78.7631818, 52.5925714 ], [ -78.768882, 52.5938355 ] ] ], [ [ [ -78.76617, 52.56359 ], [ -78.7655007, 52.5607349 ], [ -78.7657457, 52.5637149 ], [ -78.76617, 52.56359 ] ] ], [ [ [ -78.7637643, 52.8317396 ], [ -78.7646568, 52.8295174 ], [ -78.7631473, 52.8315041 ], [ -78.7637643, 52.8317396 ] ] ], [ [ [ -78.7647236, 52.5696352 ], [ -78.7599577, 52.568682 ], [ -78.7597598, 52.5718422 ], [ -78.7647236, 52.5696352 ] ] ], [ [ [ -78.76074, 52.58758 ], [ -78.7607801, 52.58681 ], [ -78.7537801, 52.5879601 ], [ -78.76074, 52.58758 ] ] ], [ [ [ -78.7603104, 52.5772332 ], [ -78.759094, 52.5771918 ], [ -78.7588722, 52.578787 ], [ -78.7603104, 52.5772332 ] ] ], [ [ [ -78.7576173, 52.6161814 ], [ -78.7575968, 52.6137116 ], [ -78.7538193, 52.615306 ], [ -78.7576173, 52.6161814 ] ] ], [ [ [ -78.7501974, 52.7937018 ], [ -78.7525605, 52.7895219 ], [ -78.7463572, 52.7924553 ], [ -78.7501974, 52.7937018 ] ] ], [ [ [ -78.7513, 52.61585 ], [ -78.7502401, 52.6118501 ], [ -78.7483599, 52.6157899 ], [ -78.7513, 52.61585 ] ] ], [ [ [ -78.7468901, 52.6115201 ], [ -78.7445008, 52.6045613 ], [ -78.7374551, 52.6101827 ], [ -78.7468901, 52.6115201 ] ] ], [ [ [ -78.74464, 52.59804 ], [ -78.74443, 52.5938 ], [ -78.7383201, 52.59817 ], [ -78.74464, 52.59804 ] ] ], [ [ [ -78.7429669, 52.5834922 ], [ -78.7422937, 52.5808774 ], [ -78.738351, 52.5852816 ], [ -78.7429669, 52.5834922 ] ] ], [ [ [ -78.7365899, 52.54202 ], [ -78.73082, 52.5395901 ], [ -78.73026, 52.5424099 ], [ -78.7365899, 52.54202 ] ] ], [ [ [ -78.7317184, 52.0053115 ], [ -78.7319651, 52.0042944 ], [ -78.7302163, 52.0053115 ], [ -78.7317184, 52.0053115 ] ] ], [ [ [ -78.73366, 52.0086677 ], [ -78.7340462, 52.0061316 ], [ -78.7319112, 52.0067921 ], [ -78.73366, 52.0086677 ] ] ], [ [ [ -78.7331299, 52.58449 ], [ -78.73104, 52.5841999 ], [ -78.73142, 52.5849701 ], [ -78.7331299, 52.58449 ] ] ], [ [ [ -78.72148, 51.9958499 ], [ -78.72408, 51.9937201 ], [ -78.72114, 51.9942999 ], [ -78.72148, 51.9958499 ] ] ], [ [ [ -78.706962, 52.0166197 ], [ -78.7050523, 52.0147577 ], [ -78.7049021, 52.0171216 ], [ -78.706962, 52.0166197 ] ] ], [ [ [ -78.6995377, 52.018178 ], [ -78.6952462, 52.0147577 ], [ -78.6946883, 52.0186666 ], [ -78.6995377, 52.018178 ] ] ], [ [ [ -78.6850798, 52.0533482 ], [ -78.6846614, 52.0514151 ], [ -78.6823762, 52.052695 ], [ -78.6850798, 52.0533482 ] ] ], [ [ [ -78.6198793, 52.0976543 ], [ -78.6169825, 52.0889798 ], [ -78.6130129, 52.0909179 ], [ -78.6170255, 52.0916958 ], [ -78.6198793, 52.0976543 ] ] ], [ [ [ -78.6153947, 52.0937523 ], [ -78.6153947, 52.0930141 ], [ -78.6150514, 52.09337 ], [ -78.6153947, 52.0937523 ] ] ], [ [ [ -78.5811925, 52.2454868 ], [ -78.5832501, 52.2415699 ], [ -78.5731351, 52.2441139 ], [ -78.5811925, 52.2454868 ] ] ], [ [ [ -78.5775, 52.4386601 ], [ -78.5592599, 52.4311099 ], [ -78.5659199, 52.44329 ], [ -78.5775, 52.4386601 ] ] ], [ [ [ -78.54986, 52.4002901 ], [ -78.5557437, 52.3963571 ], [ -78.534286, 52.404304 ], [ -78.54986, 52.4002901 ] ] ], [ [ [ -78.5701399, 52.2445 ], [ -78.5660005, 52.2436737 ], [ -78.56596, 52.2446699 ], [ -78.5701399, 52.2445 ] ] ], [ [ [ -78.5625509, 52.293286 ], [ -78.5605667, 52.292904 ], [ -78.559988, 52.2944995 ], [ -78.5625509, 52.293286 ] ] ], [ [ [ -78.5518857, 52.249667 ], [ -78.5490962, 52.2501005 ], [ -78.547916, 52.2509281 ], [ -78.5518857, 52.249667 ] ] ], [ [ [ -78.5444399, 52.2497196 ], [ -78.5416075, 52.250048 ], [ -78.5407706, 52.250823 ], [ -78.5444399, 52.2497196 ] ] ], [ [ [ -78.5431299, 52.38555 ], [ -78.5423863, 52.3840148 ], [ -78.5400581, 52.3853311 ], [ -78.5431299, 52.38555 ] ] ], [ [ [ -78.5317755, 52.3994339 ], [ -78.5273123, 52.3968284 ], [ -78.5212612, 52.4000623 ], [ -78.5317755, 52.3994339 ] ] ], [ [ [ -78.5302499, 52.407864 ], [ -78.5294401, 52.4057599 ], [ -78.5276127, 52.4073803 ], [ -78.5302499, 52.407864 ] ] ], [ [ [ -78.5234392, 52.4555256 ], [ -78.5227311, 52.4530411 ], [ -78.5195768, 52.4535184 ], [ -78.5234392, 52.4555256 ] ] ], [ [ [ -77.1949582, 55.6633346 ], [ -77.1937922, 55.6589566 ], [ -77.1884977, 55.6606721 ], [ -77.1949582, 55.6633346 ] ] ] ] } }
]
}
